start=new Date('2022-10-23T00:00:00.000Z').valueOf();
sats=[{"BSTAR":"0.00002831700000","TLE_LINE2":"2 52684  53.2169 283.7179 0002457  38.9406 321.1763 15.08837495 24849","TIME_SYSTEM":"UTC","RA_OF_ASC_NODE":"283.7179","CLASSIFICATION_TYPE":"U","ECCENTRICITY":"0.00024570","COUNTRY_CODE":"US","GP_ID":"215929249","DECAY_DATE":null,"OBJECT_TYPE":"PAYLOAD","SITE":"AFETR","EPOCH":"2022-10-22T16:45:49.097088","REV_AT_EPOCH":"2484","RCS_SIZE":"LARGE","REF_FRAME":"TEME","MEAN_MOTION":"15.08837495","MEAN_ANOMALY":"321.1763","PERIAPSIS":"538.053","OBJECT_NAME":"STARLINK-4014","FILE":"3629797","NORAD_CAT_ID":"52684","CENTER_NAME":"EARTH","APOAPSIS":"541.453","MEAN_MOTION_DDOT":"0.0000000000000","OBJECT_ID":"2022-053AE","MEAN_MOTION_DOT":"0.00000162","MEAN_ELEMENT_THEORY":"SGP4","INCLINATION":"53.2169","LAUNCH_DATE":"2022-05-18","ARG_OF_PERICENTER":"38.9406","PERIOD":"95.438","EPHEMERIS_TYPE":"0","SEMIMAJOR_AXIS":"6917.888","ELEMENT_SET_NO":"999","TLE_LINE1":"1 52684U 22053AE  22295.69848492  .00000162  00000-0  28317-4 0  9991"},{"INCLINATION":"53.2172","LAUNCH_DATE":"2022-05-18","ARG_OF_PERICENTER":"32.1218","SEMIMAJOR_AXIS":"6917.853","TLE_LINE1":"1 52685U 22053AF  22295.67639405  .00002019  00000-0  14490-3 0  9991","ELEMENT_SET_NO":"999","PERIOD":"95.437","EPHEMERIS_TYPE":"0","MEAN_MOTION_DDOT":"0.0000000000000","MEAN_ELEMENT_THEORY":"SGP4","OBJECT_ID":"2022-053AF","MEAN_MOTION_DOT":"0.00002019","MEAN_MOTION":"15.08848823","MEAN_ANOMALY":"327.9909","OBJECT_NAME":"STARLINK-4029","PERIAPSIS":"538.179","FILE":"3629797","NORAD_CAT_ID":"52685","REF_FRAME":"TEME","APOAPSIS":"541.258","CENTER_NAME":"EARTH","TIME_SYSTEM":"UTC","RA_OF_ASC_NODE":"283.8116","CLASSIFICATION_TYPE":"U","ECCENTRICITY":"0.00022260","BSTAR":"0.00014490000000","TLE_LINE2":"2 52685  53.2172 283.8116 0002226  32.1218 327.9909 15.08848823 24828","EPOCH":"2022-10-22T16:14:00.445920","REV_AT_EPOCH":"2482","RCS_SIZE":"LARGE","GP_ID":"215928852","COUNTRY_CODE":"US","SITE":"AFETR","DECAY_DATE":null,"OBJECT_TYPE":"PAYLOAD"},{"SEMIMAJOR_AXIS":"6917.877","TLE_LINE1":"1 52686U 22053AG  22295.68744176  .00000776  00000-0  66859-4 0  9990","ELEMENT_SET_NO":"999","PERIOD":"95.437","EPHEMERIS_TYPE":"0","INCLINATION":"53.2175","LAUNCH_DATE":"2022-05-18","ARG_OF_PERICENTER":"40.2967","MEAN_ELEMENT_THEORY":"SGP4","OBJECT_ID":"2022-053AG","MEAN_MOTION_DOT":"0.00000776","MEAN_MOTION_DDOT":"0.0000000000000","APOAPSIS":"541.220","CENTER_NAME":"EARTH","MEAN_ANOMALY":"319.8183","MEAN_MOTION":"15.08841009","OBJECT_NAME":"STARLINK-4005","PERIAPSIS":"538.265","FILE":"3629797","NORAD_CAT_ID":"52686","REF_FRAME":"TEME","EPOCH":"2022-10-22T16:29:54.968064","REV_AT_EPOCH":"2483","RCS_SIZE":"LARGE","GP_ID":"215928107","COUNTRY_CODE":"US","DECAY_DATE":null,"OBJECT_TYPE":"PAYLOAD","SITE":"AFETR","RA_OF_ASC_NODE":"283.7681","TIME_SYSTEM":"UTC","CLASSIFICATION_TYPE":"U","ECCENTRICITY":"0.00021360","BSTAR":"0.00006685900000","TLE_LINE2":"2 52686  53.2175 283.7681 0002136  40.2967 319.8183 15.08841009 24833"},{"MEAN_MOTION_DDOT":"0.0000000000000","MEAN_ELEMENT_THEORY":"SGP4","MEAN_MOTION_DOT":"-0.00000449","OBJECT_ID":"2022-053AH","INCLINATION":"53.2186","LAUNCH_DATE":"2022-05-18","ARG_OF_PERICENTER":"29.5839","SEMIMAJOR_AXIS":"6917.903","ELEMENT_SET_NO":"999","TLE_LINE1":"1 52687U 22053AH  22295.67272638 -.00000449  00000-0 -10072-4 0  9994","PERIOD":"95.438","EPHEMERIS_TYPE":"0","TIME_SYSTEM":"UTC","RA_OF_ASC_NODE":"283.8339","CLASSIFICATION_TYPE":"U","ECCENTRICITY":"0.00024790","BSTAR":"-0.00001007200000","TLE_LINE2":"2 52687  53.2186 283.8339 0002479  29.5839 330.5293 15.08832560 24828","EPOCH":"2022-10-22T16:08:43.559232","REV_AT_EPOCH":"2482","RCS_SIZE":"LARGE","COUNTRY_CODE":"US","GP_ID":"215928689","SITE":"AFETR","DECAY_DATE":null,"OBJECT_TYPE":"PAYLOAD","MEAN_MOTION":"15.08832560","MEAN_ANOMALY":"330.5293","PERIAPSIS":"538.053","OBJECT_NAME":"STARLINK-3981","FILE":"3629797","NORAD_CAT_ID":"52687","REF_FRAME":"TEME","APOAPSIS":"541.483","CENTER_NAME":"EARTH"},{"MEAN_MOTION_DDOT":"0.0000000000000","MEAN_ELEMENT_THEORY":"SGP4","MEAN_MOTION_DOT":"-0.00000963","OBJECT_ID":"2022-053AJ","INCLINATION":"53.2182","ARG_OF_PERICENTER":"32.0646","LAUNCH_DATE":"2022-05-18","SEMIMAJOR_AXIS":"6917.889","TLE_LINE1":"1 52688U 22053AJ  22295.41608483 -.00000963  00000-0 -42386-4 0  9992","ELEMENT_SET_NO":"999","PERIOD":"95.438","EPHEMERIS_TYPE":"0","RA_OF_ASC_NODE":"284.9806","TIME_SYSTEM":"UTC","ECCENTRICITY":"0.00029550","CLASSIFICATION_TYPE":"U","TLE_LINE2":"2 52688  53.2182 284.9806 0002955  32.0646 328.0525 15.08837251 24787","BSTAR":"-0.00004238600000","EPOCH":"2022-10-22T09:59:09.729312","RCS_SIZE":"LARGE","REV_AT_EPOCH":"2478","GP_ID":"215895486","COUNTRY_CODE":"US","DECAY_DATE":null,"OBJECT_TYPE":"PAYLOAD","SITE":"AFETR","OBJECT_NAME":"STARLINK-4032","PERIAPSIS":"537.710","MEAN_ANOMALY":"328.0525","MEAN_MOTION":"15.08837251","NORAD_CAT_ID":"52688","FILE":"3629476","REF_FRAME":"TEME","APOAPSIS":"541.798","CENTER_NAME":"EARTH"},{"CENTER_NAME":"EARTH","APOAPSIS":"541.445","REF_FRAME":"TEME","PERIAPSIS":"538.015","OBJECT_NAME":"STARLINK-4078","MEAN_ANOMALY":"320.7233","MEAN_MOTION":"15.08844894","NORAD_CAT_ID":"52689","FILE":"3629797","GP_ID":"215928434","COUNTRY_CODE":"US","SITE":"AFETR","DECAY_DATE":null,"OBJECT_TYPE":"PAYLOAD","EPOCH":"2022-10-22T15:52:49.100160","RCS_SIZE":"LARGE","REV_AT_EPOCH":"2485","TLE_LINE2":"2 52689  53.2202 283.8895 0002479  39.3939 320.7233 15.08844894 24857","BSTAR":"0.00008510000000","RA_OF_ASC_NODE":"283.8895","TIME_SYSTEM":"UTC","ECCENTRICITY":"0.00024790","CLASSIFICATION_TYPE":"U","PERIOD":"95.437","EPHEMERIS_TYPE":"0","SEMIMAJOR_AXIS":"6917.865","TLE_LINE1":"1 52689U 22053AK  22295.66167940  .00001066  00000-0  85100-4 0  9992","ELEMENT_SET_NO":"999","INCLINATION":"53.2202","ARG_OF_PERICENTER":"39.3939","LAUNCH_DATE":"2022-05-18","MEAN_MOTION_DOT":"0.00001066","OBJECT_ID":"2022-053AK","MEAN_ELEMENT_THEORY":"SGP4","MEAN_MOTION_DDOT":"0.0000000000000"},{"ELEMENT_SET_NO":"999","TLE_LINE1":"1 52690U 22053AL  22295.28264506 -.00000707  00000-0 -26297-4 0  9993","SEMIMAJOR_AXIS":"6917.878","EPHEMERIS_TYPE":"0","PERIOD":"95.438","LAUNCH_DATE":"2022-05-18","ARG_OF_PERICENTER":"44.3504","INCLINATION":"53.2194","MEAN_ELEMENT_THEORY":"SGP4","OBJECT_ID":"2022-053AL","MEAN_MOTION_DOT":"-0.00000707","MEAN_MOTION_DDOT":"0.0000000000000","CENTER_NAME":"EARTH","APOAPSIS":"541.264","FILE":"3629476","NORAD_CAT_ID":"52690","MEAN_ANOMALY":"315.7664","MEAN_MOTION":"15.08840698","PERIAPSIS":"538.222","OBJECT_NAME":"STARLINK-4035","REF_FRAME":"TEME","REV_AT_EPOCH":"2476","RCS_SIZE":"LARGE","EPOCH":"2022-10-22T06:47:00.533184","DECAY_DATE":null,"OBJECT_TYPE":"PAYLOAD","SITE":"AFETR","COUNTRY_CODE":"US","GP_ID":"215895742","CLASSIFICATION_TYPE":"U","ECCENTRICITY":"0.00021990","RA_OF_ASC_NODE":"285.5853","TIME_SYSTEM":"UTC","BSTAR":"-0.00002629700000","TLE_LINE2":"2 52690  53.2194 285.5853 0002199  44.3504 315.7664 15.08840698 24765"},{"APOAPSIS":"541.404","CENTER_NAME":"EARTH","PERIAPSIS":"538.038","OBJECT_NAME":"STARLINK-3945","MEAN_ANOMALY":"318.8978","MEAN_MOTION":"15.08847880","NORAD_CAT_ID":"52691","FILE":"3629476","REF_FRAME":"TEME","EPOCH":"2022-10-22T09:25:58.742400","RCS_SIZE":"LARGE","REV_AT_EPOCH":"2481","COUNTRY_CODE":"US","GP_ID":"215896069","OBJECT_TYPE":"PAYLOAD","DECAY_DATE":null,"SITE":"AFETR","RA_OF_ASC_NODE":"285.0898","TIME_SYSTEM":"UTC","ECCENTRICITY":"0.00024330","CLASSIFICATION_TYPE":"U","TLE_LINE2":"2 52691  53.2193 285.0898 0002433  41.2197 318.8978 15.08847880 24812","BSTAR":"-0.00001856000000","SEMIMAJOR_AXIS":"6917.856","ELEMENT_SET_NO":"999","TLE_LINE1":"1 52691U 22053AM  22295.39304100 -.00000584  00000-0 -18560-4 0  9998","PERIOD":"95.437","EPHEMERIS_TYPE":"0","INCLINATION":"53.2193","ARG_OF_PERICENTER":"41.2197","LAUNCH_DATE":"2022-05-18","MEAN_ELEMENT_THEORY":"SGP4","MEAN_MOTION_DOT":"-0.00000584","OBJECT_ID":"2022-053AM","MEAN_MOTION_DDOT":"0.0000000000000"},{"MEAN_MOTION_DDOT":"0.0000000000000","MEAN_MOTION_DOT":"-0.00001175","OBJECT_ID":"2022-053AN","MEAN_ELEMENT_THEORY":"SGP4","INCLINATION":"53.2188","LAUNCH_DATE":"2022-05-18","ARG_OF_PERICENTER":"36.3832","PERIOD":"95.437","EPHEMERIS_TYPE":"0","SEMIMAJOR_AXIS":"6917.873","TLE_LINE1":"1 52692U 22053AN  22295.47032064 -.00001175  00000-0 -55733-4 0  9995","ELEMENT_SET_NO":"999","BSTAR":"-0.00005573300000","TLE_LINE2":"2 52692  53.2188 284.7399 0002006  36.3832 323.7296 15.08842355 24423","RA_OF_ASC_NODE":"284.7399","TIME_SYSTEM":"UTC","CLASSIFICATION_TYPE":"U","ECCENTRICITY":"0.00020060","COUNTRY_CODE":"US","GP_ID":"215866653","DECAY_DATE":null,"SITE":"AFETR","OBJECT_TYPE":"PAYLOAD","EPOCH":"2022-10-22T11:17:15.703296","REV_AT_EPOCH":"2442","RCS_SIZE":"LARGE","REF_FRAME":"TEME","MEAN_ANOMALY":"323.7296","MEAN_MOTION":"15.08842355","OBJECT_NAME":"STARLINK-3993","PERIAPSIS":"538.350","FILE":"3629310","NORAD_CAT_ID":"52692","APOAPSIS":"541.126","CENTER_NAME":"EARTH"},{"SEMIMAJOR_AXIS":"6917.883","TLE_LINE1":"1 52693U 22053AP  22295.38568128 -.00000176  00000-0  70900-5 0  9994","ELEMENT_SET_NO":"999","PERIOD":"95.438","EPHEMERIS_TYPE":"0","INCLINATION":"53.2182","ARG_OF_PERICENTER":"39.4237","LAUNCH_DATE":"2022-05-18","MEAN_ELEMENT_THEORY":"SGP4","MEAN_MOTION_DOT":"-0.00000176","OBJECT_ID":"2022-053AP","MEAN_MOTION_DDOT":"0.0000000000000","APOAPSIS":"541.403","CENTER_NAME":"EARTH","PERIAPSIS":"538.093","OBJECT_NAME":"STARLINK-3946","MEAN_ANOMALY":"320.6929","MEAN_MOTION":"15.08839171","NORAD_CAT_ID":"52693","FILE":"3629476","REF_FRAME":"TEME","EPOCH":"2022-10-22T09:15:22.862592","RCS_SIZE":"LARGE","REV_AT_EPOCH":"2481","COUNTRY_CODE":"US","GP_ID":"215895579","OBJECT_TYPE":"PAYLOAD","DECAY_DATE":null,"SITE":"AFETR","TIME_SYSTEM":"UTC","RA_OF_ASC_NODE":"285.1272","ECCENTRICITY":"0.00023920","CLASSIFICATION_TYPE":"U","TLE_LINE2":"2 52693  53.2182 285.1272 0002392  39.4237 320.6929 15.08839171 24818","BSTAR":"0.00000709000000"}];
